NORAD_CAT_ID,OBJECT_NAME,OBJECT_TYPE,EPOCH,MEAN_MOTION,ECCENTRICITY,INCLINATION,RA_OF_ASC_NODE,ARG_OF_PERICENTER,MEAN_ANOMALY,BSTAR,MEAN_MOTION_DOT,MEAN_MOTION_DDOT,TLE_LINE0,TLE_LINE1,TLE_LINE2,SEMIMAJOR_AXIS,PERIOD,APOGEE,PERIGEE,DECAYED
52656.0,STARLINK-4004,PAYLOAD,2023-12-15 22:32:36,15.08831982,0.0001509,53.2165,211.6896,75.3724,284.7436,2.667e-05,1.36e-06,0.0,0 STARLINK-4004,1 52656U 22053A   23349.93931496  .00000136  00000-0  26670-4 0  9996,2 52656  53.2165 211.6896 0001509  75.3724 284.7436 15.08831982 88111,6917.905,95.438,540.814,538.726,0.0
52656.0,STARLINK-4004,PAYLOAD,2023-12-16 19:12:36,15.08844721,0.0001535,53.2169,207.8224,76.9028,283.2136,9.2337e-05,1.182e-05,0.0,0 STARLINK-4004,1 52656U 22053A   23350.80042783  .00001182  00000-0  92337-4 0  9991,2 52656  53.2169 207.8224 0001535  76.9028 283.2136 15.08844721 88240,6917.866,95.437,540.793,538.669,0.0
52656.0,STARLINK-4004,PAYLOAD,2023-12-16 22:23:23,15.08845313,0.0001626,53.2157,207.2281,71.2456,288.8713,0.00016168,2.286e-05,0.0,0 STARLINK-4004,1 52656U 22053A   23350.93290791  .00002286  00000-0  16168-3 0  9992,2 52656  53.2157 207.2281 0001626  71.2456 288.8713 15.08845313 88260,6917.864,95.437,540.854,538.604,0.0
52656.0,STARLINK-4004,PAYLOAD,2023-12-17 20:38:47,15.0884968,0.0001694,53.2155,203.0655,68.7091,291.4082,0.00027255,4.053e-05,0.0,0 STARLINK-4004,1 52656U 22053A   23351.86026715  .00004053  00000-0  27255-3 0  9991,2 52656  53.2155 203.0655 0001694  68.7091 291.4082 15.08849680 88404,6917.851,95.437,540.888,538.544,0.0
52656.0,STARLINK-4004,PAYLOAD,2023-12-18 18:54:11,15.08836785,0.0001353,53.2158,198.9013,102.8228,257.2916,-4.0589e-05,-9.34e-06,0.0,0 STARLINK-4004,1 52656U 22053A   23352.78763288 -.00000934  00000-0 -40589-4 0  9998,2 52656  53.2158 198.9013 0001353 102.8228 257.2916 15.08836785 88544,6917.89,95.438,540.691,538.819,0.0
52656.0,STARLINK-4004,PAYLOAD,2023-12-18 20:29:34,15.08835175,0.0001466,53.2154,198.6042,108.6929,251.4222,-6.4806e-05,-1.319e-05,0.0,0 STARLINK-4004,1 52656U 22053A   23352.85387349 -.00001319  00000-0 -64806-4 0  9992,2 52656  53.2154 198.6042 0001466 108.6929 251.4222 15.08835175 88555,6917.895,95.438,540.774,538.746,0.0
52656.0,STARLINK-4004,PAYLOAD,2023-12-19 20:20:21,15.08842525,0.0001288,53.2152,194.1377,114.8408,245.2718,-3.1295e-07,-2.93e-06,0.0,0 STARLINK-4004,1 52656U 22053A   23353.84747250 -.00000293  00000-0 -31295-6 0  9991,2 52656  53.2152 194.1377 0001288 114.8408 245.2718 15.08842525 88703,6917.873,95.437,540.629,538.847,0.0
52656.0,STARLINK-4004,PAYLOAD,2023-12-20 20:11:08,15.08852452,0.0001149,53.2153,189.68,94.4855,265.6269,0.00038664,5.873e-05,0.0,0 STARLINK-4004,1 52656U 22053A   23354.84107084  .00005873  00000-0  38664-3 0  9998,2 52656  53.2153 189.6800 0001149  94.4855 265.6269 15.08852452 88852,6917.842,95.437,540.502,538.912,0.0
52656.0,STARLINK-4004,PAYLOAD,2023-12-22 19:52:40,15.08840325,0.0001304,53.2154,180.7607,89.948,270.1661,-0.00030655,-5.163e-05,0.0,0 STARLINK-4004,1 52656U 22053A   23356.82825082 -.00005163  00000-0 -30655-3 0  9999,2 52656  53.2154 180.7607 0001304  89.9480 270.1661 15.08840325 89153,6917.879,95.438,540.646,538.842,0.0
52656.0,STARLINK-4004,PAYLOAD,2023-12-23 19:43:27,15.08845861,0.0001957,53.2152,176.302,131.7787,228.3373,-0.00034132,-5.717e-05,0.0,0 STARLINK-4004,1 52656U 22053A   23357.82185121 -.00005717  00000-0 -34132-3 0  9992,2 52656  53.2152 176.3020 0001957 131.7787 228.3373 15.08845861 89303,6917.862,95.437,541.081,538.374,0.0
52656.0,STARLINK-4004,PAYLOAD,2023-12-23 21:18:51,15.08837436,0.0001358,53.2153,176.0035,85.3084,274.8063,-6.2178e-05,-1.277e-05,0.0,0 STARLINK-4004,1 52656U 22053A   23357.88809751 -.00001277  00000-0 -62178-4 0  9999,2 52656  53.2153 176.0035 0001358  85.3084 274.8063 15.08837436 89318,6917.888,95.438,540.693,538.814,0.0
52656.0,STARLINK-4004,PAYLOAD,2023-12-24 19:34:16,15.08830437,0.0001465,53.2156,171.8405,77.0041,283.1115,0.00018336,2.631e-05,0.0,0 STARLINK-4004,1 52656U 22053A   23358.81546701  .00002631  00000-0  18336-3 0  9995,2 52656  53.2156 171.8405 0001465  77.0041 283.1115 15.08830437 89455,6917.91,95.438,540.788,538.761,0.0
52656.0,STARLINK-4004,PAYLOAD,2023-12-25 11:28:07,15.08834087,0.0001459,53.2154,168.8671,77.4853,282.6302,0.00018844,2.712e-05,0.0,0 STARLINK-4004,1 52656U 22053A   23359.47787029  .00002712  00000-0  18844-3 0  9992,2 52656  53.2154 168.8671 0001459  77.4853 282.6302 15.08834087 89550,6917.898,95.438,540.773,538.754,0.0
52656.0,STARLINK-4004,PAYLOAD,2023-12-25 17:49:40,15.08838298,0.0001522,53.2155,167.6794,73.0148,287.1011,0.00023187,3.404e-05,0.0,0 STARLINK-4004,1 52656U 22053A   23359.74282980  .00003404  00000-0  23187-3 0  9993,2 52656  53.2155 167.6794 0001522  73.0148 287.1011 15.08838298 89593,6917.886,95.438,540.803,538.698,0.0
52656.0,STARLINK-4004,PAYLOAD,2023-12-26 14:29:41,15.08837955,0.000134,53.215,163.8145,83.7025,276.4119,0.00013906,1.926e-05,0.0,0 STARLINK-4004,1 52656U 22053A   23360.60395266  .00001926  00000-0  13906-3 0  9997,2 52656  53.2150 163.8145 0001340  83.7025 276.4119 15.08837955 89720,6917.887,95.438,540.679,538.825,0.0
52656.0,STARLINK-4004,PAYLOAD,2023-12-26 17:40:27,15.08838514,0.0001293,53.2153,163.2195,89.8687,270.2454,0.00013326,1.833e-05,0.0,0 STARLINK-4004,1 52656U 22053A   23360.73643213  .00001833  00000-0  13326-3 0  9992,2 52656  53.2153 163.2195 0001293  89.8687 270.2454 15.08838514 89748,6917.885,95.438,540.644,538.855,0.0
52656.0,STARLINK-4004,PAYLOAD,2023-12-26 20:51:13,15.08840021,0.0001275,53.2151,162.6239,91.7442,268.3696,0.00014512,2.022e-05,0.0,0 STARLINK-4004,1 52656U 22053A   23360.86891114  .00002022  00000-0  14512-3 0  9990,2 52656  53.2151 162.6239 0001275  91.7442 268.3696 15.08840021 89763,6917.88,95.438,540.627,538.863,0.0
52656.0,STARLINK-4004,PAYLOAD,2023-12-27 14:20:28,15.08841085,0.0001357,53.2156,159.352,93.8404,266.2743,0.00010542,1.39e-05,0.0,0 STARLINK-4004,1 52656U 22053A   23361.59755193  .00001390  00000-0  10542-3 0  9993,2 52656  53.2156 159.3520 0001357  93.8404 266.2743 15.08841085 89879,6917.877,95.437,540.681,538.803,0.0
52656.0,STARLINK-4004,PAYLOAD,2023-12-27 17:31:14,15.08842459,0.0001321,53.2168,158.7575,92.4225,267.6918,8.9367e-05,1.135e-05,0.0,0 STARLINK-4004,1 52656U 22053A   23361.73003037  .00001135  00000-0  89367-4 0  9991,2 52656  53.2168 158.7575 0001321  92.4225 267.6918 15.08842459 89899,6917.873,95.437,540.652,538.824,0.0
52656.0,STARLINK-4004,PAYLOAD,2023-12-28 11:00:29,15.08835489,0.0001361,53.2171,155.4858,83.9597,276.1551,7.1869e-05,8.56e-06,0.0,0 STARLINK-4004,1 52656U 22053A   23362.45867672  .00000856  00000-0  71869-4 0  9991,2 52656  53.2171 155.4858 0001361  83.9597 276.1551 15.08835489 90000,6917.894,95.438,540.701,538.818,0.0
52656.0,STARLINK-4004,PAYLOAD,2023-12-28 14:11:15,15.08836728,0.0001312,53.2169,154.8911,91.7099,268.4044,7.263e-05,8.68e-06,0.0,0 STARLINK-4004,1 52656U 22053A   23362.59115568  .00000868  00000-0  72630-4 0  9996,2 52656  53.2169 154.8911 0001312  91.7099 268.4044 15.08836728 90020,6917.89,95.438,540.663,538.848,0.0
52656.0,STARLINK-4004,PAYLOAD,2023-12-28 15:46:38,15.08836933,0.0001311,53.217,154.5938,91.5282,268.586,7.0863e-05,8.4e-06,0.0,0 STARLINK-4004,1 52656U 22053A   23362.65739564  .00000840  00000-0  70863-4 0  9997,2 52656  53.2170 154.5938 0001311  91.5282 268.5860 15.08836933 90035,6917.89,95.438,540.662,538.848,0.0
52656.0,STARLINK-4004,PAYLOAD,2023-12-29 14:02:03,15.08835372,0.0001295,53.2171,150.4334,98.0686,262.0454,2.5302e-05,1.15e-06,0.0,0 STARLINK-4004,1 52656U 22053A   23363.58475993  .00000115  00000-0  25302-4 0  9996,2 52656  53.2171 150.4334 0001295  98.0686 262.0454 15.08835372 90171,6917.895,95.438,540.655,538.864,0.0
52656.0,STARLINK-4004,PAYLOAD,2023-12-29 15:37:26,15.08835807,0.0001293,53.217,150.136,98.0123,262.1016,2.6514e-05,1.34e-06,0.0,0 STARLINK-4004,1 52656U 22053A   23363.65099965  .00000134  00000-0  26514-4 0  9992,2 52656  53.2170 150.1360 0001293  98.0123 262.1016 15.08835807 90189,6917.893,95.438,540.653,538.864,0.0
52656.0,STARLINK-4004,PAYLOAD,2023-12-30 13:52:50,15.08835324,0.0001204,53.2166,145.9712,93.5963,266.5167,4.7945e-05,4.75e-06,0.0,0 STARLINK-4004,1 52656U 22053A   23364.57836253  .00000475  00000-0  47945-4 0  9992,2 52656  53.2166 145.9712 0001204  93.5963 266.5167 15.08835324 90326,6917.895,95.438,540.593,538.927,0.0
52656.0,STARLINK-4004,PAYLOAD,2023-12-30 18:38:59,15.08839792,0.0001207,53.2164,145.0773,89.3224,270.7906,8.0737e-05,9.97e-06,0.0,0 STARLINK-4004,1 52656U 22053A   23364.77707922  .00000997  00000-0  80737-4 0  9999,2 52656  53.2164 145.0773 0001207  89.3224 270.7906 15.08839792 90352,6917.881,95.438,540.581,538.911,0.0
52656.0,STARLINK-4004,PAYLOAD,2023-12-31 15:19:00,15.08839684,0.0001215,53.2161,141.2131,85.2456,274.8675,9.6377e-05,1.246e-05,0.0,0 STARLINK-4004,1 52656U 22053A   23365.63820074  .00001246  00000-0  96377-4 0  9994,2 52656  53.2161 141.2131 0001215  85.2456 274.8675 15.08839684 90488,6917.881,95.438,540.587,538.906,0.0
52656.0,STARLINK-4004,PAYLOAD,2024-01-01 08:48:15,15.0884101,0.0001318,53.2162,137.9427,77.1462,282.9677,5.0056e-05,5.09e-06,0.0,0 STARLINK-4004,1 52656U 22053A   24001.36684281  .00000509  00000-0  50056-4 0  9995,2 52656  53.2162 137.9427 0001318  77.1462 282.9677 15.08841010 90590,6917.877,95.437,540.654,538.831,0.0
52656.0,STARLINK-4004,PAYLOAD,2024-01-01 13:34:24,15.08841461,0.0001283,53.2161,137.0504,78.1319,281.9817,4.8803e-05,4.89e-06,0.0,0 STARLINK-4004,1 52656U 22053A   24001.56556212  .00000489  00000-0  48803-4 0  9993,2 52656  53.2161 137.0504 0001283  78.1319 281.9817 15.08841461 90628,6917.876,95.437,540.628,538.853,0.0
52656.0,STARLINK-4004,PAYLOAD,2024-01-01 15:09:47,15.08841736,0.0001279,53.2161,136.7531,77.4168,282.6967,4.9239e-05,4.96e-06,0.0,0 STARLINK-4004,1 52656U 22053A   24001.63180187  .00000496  00000-0  49239-4 0  9997,2 52656  53.2161 136.7531 0001279  77.4168 282.6967 15.08841736 90633,6917.875,95.437,540.625,538.855,0.0
